[{"OBJECT_NAME":"STARLINK-35059","OBJECT_ID":"2025-194W","EPOCH":"2026-03-09T13:12:20.699712","MEAN_MOTION":15.01263903,"ECCENTRICITY":0.00018888,"INCLINATION":97.6037,"RA_OF_ASC_NODE":284.8767,"ARG_OF_PERICENTER":81.8838,"MEAN_ANOMALY":278.2601,"EPHEMERIS_TYPE":0,"CLASSIFICATION_TYPE":"U","NORAD_CAT_ID":65454,"ELEMENT_SET_NO":999,"REV_AT_EPOCH":2966,"BSTAR":0.00029003443,"MEAN_MOTION_DOT":3.669e-5,"MEAN_MOTION_DDOT":0},{"OBJECT_NAME":"PEGASUS DEB","OBJECT_ID":"1994-029EN","EPOCH":"2026-03-09T15:28:18.113376","MEAN_MOTION":15.06103636,"ECCENTRICITY":0.0063203,"INCLINATION":81.992,"RA_OF_ASC_NODE":119.5258,"ARG_OF_PERICENTER":162.6478,"MEAN_ANOMALY":325.8514,"EPHEMERIS_TYPE":0,"CLASSIFICATION_TYPE":"U","NORAD_CAT_ID":24091,"ELEMENT_SET_NO":999,"REV_AT_EPOCH":61530,"BSTAR":0.00036871,"MEAN_MOTION_DOT":5.666e-5,"MEAN_MOTION_DDOT":0}]
